{
  "features": [
    {
      "geometry": {
        "coordinates": [
          -95.394107,
          29.812003
        ],
        "type": "Point"
      },
      "properties": {
        "site_id": "N-01"
      },
      "type": "Feature"
    },
    {
      "geometry": {
        "coordinates": [
          -95.397238,
          29.813777
        ],
        "type": "Point"
      },
      "properties": {
        "site_id": "N-02"
      },
      "type": "Feature"
    },
    {
      "geometry": {
        "coordinates": [
          -95.407674,
          29.810293
        ],
        "type": "Point"
      },
      "properties": {
        "site_id": "N-03"
      },
      "type": "Feature"
    },
    {
      "geometry": {
        "coordinates": [
          -95.397354,
          29.810573
        ],
        "type": "Point"
      },
      "properties": {
        "site_id": "N-04"
      },
      "type": "Feature"
    },
    {
      "geometry": {
        "coordinates": [
          -95.404227,
          29.807268
        ],
        "type": "Point"
      },
      "properties": {
        "site_id": "N-05"
      },
      "type": "Feature"
    },
    {
      "geometry": {
        "coordinates": [
          -95.404515,
          29.818061
        ],
        "type": "Point"
      },
      "properties": {
        "site_id": "N-06"
      },
      "type": "Feature"
    },
    {
      "geometry": {
        "coordinates": [
          -95.401785,
          29.804553
        ],
        "type": "Point"
      },
      "properties": {
        "site_id": "N-07"
      },
      "type": "Feature"
    },
    {
      "geometry": {
        "coordinates": [
          -95.400103,
          29.806589
        ],
        "type": "Point"
      },
      "properties": {
        "site_id": "N-08"
      },
      "type": "Feature"
    },
    {
      "geometry": {
        "coordinates": [
          -95.405948,
          29.815736
        ],
        "type": "Point"
      },
      "properties": {
        "site_id": "N-09"
      },
      "type": "Feature"
    },
    {
      "geometry": {
        "coordinates": [
          -95.398067,
          29.814855
        ],
        "type": "Point"
      },
      "properties": {
        "site_id": "N-10"
      },
      "type": "Feature"
    },
    {
      "geometry": {
        "coordinates": [
          -95.405967,
          29.809747
        ],
        "type": "Point"
      },
      "properties": {
        "site_id": "N-11"
      },
      "type": "Feature"
    },
    {
      "geometry": {
        "coordinates": [
          -95.409102,
          29.818852
        ],
        "type": "Point"
      },
      "properties": {
        "site_id": "N-12"
      },
      "type": "Feature"
    }
  ],
  "type": "FeatureCollection"
}
