{
  "features": [
    {
      "geometry": {
        "coordinates": [
          -95.40542,
          29.809001
        ],
        "type": "Point"
      },
      "properties": {
        "site_id": "N-01"
      },
      "type": "Feature"
    },
    {
      "geometry": {
        "coordinates": [
          -95.369956,
          29.689127
        ],
        "type": "Point"
      },
      "properties": {
        "site_id": "S-01"
      },
      "type": "Feature"
    },
    {
      "geometry": {
        "coordinates": [
          -95.48988,
          29.748561
        ],
        "type": "Point"
      },
      "properties": {
        "site_id": "W-01"
      },
      "type": "Feature"
    },
    {
      "geometry": {
        "coordinates": [
          -95.408687,
          29.803466
        ],
        "type": "Point"
      },
      "properties": {
        "site_id": "N-02"
      },
      "type": "Feature"
    },
    {
      "geometry": {
        "coordinates": [
          -95.377254,
          29.684484
        ],
        "type": "Point"
      },
      "properties": {
        "site_id": "S-02"
      },
      "type": "Feature"
    },
    {
      "geometry": {
        "coordinates": [
          -95.491526,
          29.743067
        ],
        "type": "Point"
      },
      "properties": {
        "site_id": "W-02"
      },
      "type": "Feature"
    },
    {
      "geometry": {
        "coordinates": [
          -95.392352,
          29.81272
        ],
        "type": "Point"
      },
      "properties": {
        "site_id": "N-03"
      },
      "type": "Feature"
    },
    {
      "geometry": {
        "coordinates": [
          -95.36432,
          29.680522
        ],
        "type": "Point"
      },
      "properties": {
        "site_id": "S-03"
      },
      "type": "Feature"
    },
    {
      "geometry": {
        "coordinates": [
          -95.490694,
          29.751722
        ],
        "type": "Point"
      },
      "properties": {
        "site_id": "W-03"
      },
      "type": "Feature"
    },
    {
      "geometry": {
        "coordinates": [
          -95.401631,
          29.809579
        ],
        "type": "Point"
      },
      "properties": {
        "site_id": "N-04"
      },
      "type": "Feature"
    },
    {
      "geometry": {
        "coordinates": [
          -95.37545,
          29.675098
        ],
        "type": "Point"
      },
      "properties": {
        "site_id": "S-04"
      },
      "type": "Feature"
    },
    {
      "geometry": {
        "coordinates": [
          -95.493779,
          29.75839
        ],
        "type": "Point"
      },
      "properties": {
        "site_id": "W-04"
      },
      "type": "Feature"
    }
  ],
  "type": "FeatureCollection"
}
