{
  "features": [
    {
      "geometry": {
        "coordinates": [
          [
            [
              -95.415,
              29.795
            ],
            [
              -95.385,
              29.795
            ],
            [
              -95.385,
              29.825
            ],
            [
              -95.415,
              29.825
            ],
            [
              -95.415,
              29.795
            ]
          ]
        ],
        "type": "Polygon"
      },
      "properties": {
        "cluster_id": "N",
        "name": "N"
      },
      "type": "Feature"
    },
    {
      "geometry": {
        "coordinates": [
          [
            [
              -95.385,
              29.665
            ],
            [
              -95.355,
              29.665
            ],
            [
              -95.355,
              29.695
            ],
            [
              -95.385,
              29.695
            ],
            [
              -95.385,
              29.665
            ]
          ]
        ],
        "type": "Polygon"
      },
      "properties": {
        "cluster_id": "S",
        "name": "S"
      },
      "type": "Feature"
    }
  ],
  "type": "FeatureCollection"
}
