{
  "features": [
    {
      "geometry": {
        "coordinates": [
          -95.409665,
          29.818841
        ],
        "type": "Point"
      },
      "properties": {
        "site_id": "N-01"
      },
      "type": "Feature"
    },
    {
      "geometry": {
        "coordinates": [
          -95.36391,
          29.673754
        ],
        "type": "Point"
      },
      "properties": {
        "site_id": "S-01"
      },
      "type": "Feature"
    },
    {
      "geometry": {
        "coordinates": [
          -95.400982,
          29.813075
        ],
        "type": "Point"
      },
      "properties": {
        "site_id": "N-02"
      },
      "type": "Feature"
    },
    {
      "geometry": {
        "coordinates": [
          -95.365749,
          29.682968
        ],
        "type": "Point"
      },
      "properties": {
        "site_id": "S-02"
      },
      "type": "Feature"
    },
    {
      "geometry": {
        "coordinates": [
          -95.400185,
          29.80149
        ],
        "type": "Point"
      },
      "properties": {
        "site_id": "N-03"
      },
      "type": "Feature"
    },
    {
      "geometry": {
        "coordinates": [
          -95.377201,
          29.671707
        ],
        "type": "Point"
      },
      "properties": {
        "site_id": "S-03"
      },
      "type": "Feature"
    },
    {
      "geometry": {
        "coordinates": [
          -95.395494,
          29.815791
        ],
        "type": "Point"
      },
      "properties": {
        "site_id": "N-04"
      },
      "type": "Feature"
    },
    {
      "geometry": {
        "coordinates": [
          -95.367816,
          29.679933
        ],
        "type": "Point"
      },
      "properties": {
        "site_id": "S-04"
      },
      "type": "Feature"
    },
    {
      "geometry": {
        "coordinates": [
          -95.392173,
          29.809821
        ],
        "type": "Point"
      },
      "properties": {
        "site_id": "N-05"
      },
      "type": "Feature"
    },
    {
      "geometry": {
        "coordinates": [
          -95.373573,
          29.687836
        ],
        "type": "Point"
      },
      "properties": {
        "site_id": "S-05"
      },
      "type": "Feature"
    },
    {
      "geometry": {
        "coordinates": [
          -95.404623,
          29.802638
        ],
        "type": "Point"
      },
      "properties": {
        "site_id": "N-06"
      },
      "type": "Feature"
    },
    {
      "geometry": {
        "coordinates": [
          -95.375732,
          29.678424
        ],
        "type": "Point"
      },
      "properties": {
        "site_id": "S-06"
      },
      "type": "Feature"
    }
  ],
  "type": "FeatureCollection"
}
